IRIDIUM 144             
1 43249U 18030A   25322.59944171  .00000401  00000+0  13621-3 0  9998
2 43249  86.3990  18.4359 0001997  97.5700 262.5723 14.34215084399957
IRIDIUM 149             
1 43250U 18030B   25322.60576262  .00000362  00000+0  12231-3 0  9996
2 43250  86.3996  18.4033 0002110  97.3381 262.8055 14.34223917399972
IRIDIUM 157             
1 43251U 18030C   25322.62481263  .00000135  00000+0  41270-4 0  9999
2 43251  86.4000  18.4438 0002405  94.9350 265.2121 14.34216126399958
IRIDIUM 140             
1 43252U 18030D   25322.57407281  .00000350  00000+0  11785-3 0  9998
2 43252  86.3997  18.4780 0002035  97.1479 262.9948 14.34214610400005
IRIDIUM 145             
1 43253U 18030E   25322.63115565  .00000332  00000+0  11131-3 0  9992
2 43253  86.3998  18.4268 0002030 106.4848 253.6570 14.34215636399944
IRIDIUM 146             
1 43254U 18030F   25322.61211684  .00000360  00000+0  12152-3 0  9995
2 43254  86.3995  18.4477 0002139 100.3655 259.7782 14.34215142399958
IRIDIUM 148             
1 43255U 18030G   25322.58041398  .00000362  00000+0  12236-3 0  9990
2 43255  86.3998  18.5007 0002282  96.2180 263.9276 14.34215450399987
IRIDIUM 142             
1 43256U 18030H   25322.61847097  .00000197  00000+0  63202-4 0  9991
2 43256  86.3996  18.3816 0002134 107.4923 252.6506 14.34215639399955
